{"type": "FeatureCollection", "features": [ {"type": "Feature", "properties": {"norad_id": 44542, "name": "BEIDOU-3 M24 (C46)", "group": "beidou", "lat": -29.61544799480361, "lon": 164.9847731932426, "alt_km": 21519.321188800088, "timestamp": "2025-12-12T20:43:07.300503+00:00", "meta": {"OBJECT_NAME": "BEIDOU-3 M24 (C46)", "OBJECT_ID": "2019-061A", "EPOCH": "2025-12-11T20:16:59.930112", "MEAN_MOTION": 1.86229199, "ECCENTRICITY": 0.00095416, "INCLINATION": 54.4002, "RA_OF_ASC_NODE": 189.0463, "ARG_OF_PERICENTER": 24.13, "MEAN_ANOMALY": 335.9744, "EPHEMERIS_TYPE": 0, "CLASSIFICATION_TYPE": "U", "NORAD_CAT_ID": 44542, "ELEMENT_SET_NO": 999, "REV_AT_EPOCH": 4230, "BSTAR": 0, "MEAN_MOTION_DOT": 7.3e-07, "MEAN_MOTION_DDOT": 0}, "tle": {"line1": "1 44542U 19061A   25345.84513808  .00000073  00000+0  00000+0 0  9990", "line2": "2 44542  54.4002 189.0463 0009541  24.1300 335.9744  1.86229199 42307"}}, "geometry": {"type": "Point", "coordinates": [164.9847731932426, -29.61544799480361]}}, {"type": "Feature", "properties": {"norad_id": 44543, "name": "BEIDOU-3 M23 (C45)", "group": "beidou", "lat": -42.00947338954671, "lon": 49.17859365141088, "alt_km": 21547.86760382495, "timestamp": "2025-12-12T20:43:07.300514+00:00", "meta": {"OBJECT_NAME": "BEIDOU-3 M23 (C45)", "OBJECT_ID": "2019-061B", "EPOCH": "2025-12-12T05:53:39.748416", "MEAN_MOTION": 1.86227487, "ECCENTRICITY": 0.00061471, "INCLINATION": 54.3988, "RA_OF_ASC_NODE": 189.0008, "ARG_OF_PERICENTER": 23.325, "MEAN_ANOMALY": 158.0349, "EPHEMERIS_TYPE": 0, "CLASSIFICATION_TYPE": "U", "NORAD_CAT_ID": 44543, "ELEMENT_SET_NO": 999, "REV_AT_EPOCH": 4231, "BSTAR": 0, "MEAN_MOTION_DOT": 7.9e-07, "MEAN_MOTION_DDOT": 0}, "tle": {"line1": "1 44543U 19061B   25346.24559894  .00000079  00000+0  00000+0 0  9997", "line2": "2 44543  54.3988 189.0008 0006147  23.3250 158.0349  1.86227487 42313"}}, "geometry": {"type": "Point", "coordinates": [49.17859365141088, -42.00947338954671]}}, {"type": "Feature", "properties": {"norad_id": 44709, "name": "BEIDOU-3 IGSO-3 (C40)", "group": "beidou", "lat": -34.21143442048053, "lon": 131.1368514536555, "alt_km": 35638.16104224402, "timestamp": "2025-12-12T20:43:07.300526+00:00", "meta": {"OBJECT_NAME": "BEIDOU-3 IGSO-3 (C40)", "OBJECT_ID": "2019-073A", "EPOCH": "2025-11-20T07:11:22.740000", "MEAN_MOTION": 1.00250097, "ECCENTRICITY": 0.0044538, "INCLINATION": 55.163, "RA_OF_ASC_NODE": 283.159, "ARG_OF_PERICENTER": 191.5856, "MEAN_ANOMALY": 168.2409, "EPHEMERIS_TYPE": 0, "CLASSIFICATION_TYPE": "U", "NORAD_CAT_ID": 44709, "ELEMENT_SET_NO": 999, "REV_AT_EPOCH": 2236, "BSTAR": 0, "MEAN_MOTION_DOT": -2.06e-06, "MEAN_MOTION_DDOT": 0}, "tle": {"line1": "1 44709U 19073A   25324.29956875 -.00000206  00000+0  00000+0 0  9998", "line2": "2 44709  55.1630 283.1590 0044538 191.5856 168.2409  1.00250097 22360"}}, "geometry": {"type": "Point", "coordinates": [131.1368514536555, -34.21143442048053]}}, {"type": "Feature", "properties": {"norad_id": 44793, "name": "BEIDOU-3 M22 (C44)", "group": "beidou", "lat": 49.54619837352793, "lon": 4.429072844243518, "alt_km": 21511.231173491527, "timestamp": "2025-12-12T20:43:07.300541+00:00", "meta": {"OBJECT_NAME": "BEIDOU-3 M22 (C44)", "OBJECT_ID": "2019-078A", "EPOCH": "2025-12-10T01:47:05.181792", "MEAN_MOTION": 1.86231719, "ECCENTRICITY": 0.0005679, "INCLINATION": 54.1107, "RA_OF_ASC_NODE": 306.4794, "ARG_OF_PERICENTER": 23.2059, "MEAN_ANOMALY": 336.8105, "EPHEMERIS_TYPE": 0, "CLASSIFICATION_TYPE": "U", "NORAD_CAT_ID": 44793, "ELEMENT_SET_NO": 999, "REV_AT_EPOCH": 4112, "BSTAR": 0, "MEAN_MOTION_DOT": -8e-07, "MEAN_MOTION_DDOT": 0}, "tle": {"line1": "1 44793U 19078A   25344.07436553 -.00000080  00000+0  00000+0 0  9990", "line2": "2 44793  54.1107 306.4794 0005679  23.2059 336.8105  1.86231719 41120"}}, "geometry": {"type": "Point", "coordinates": [4.429072844243518, 49.54619837352793]}}, {"type": "Feature", "properties": {"norad_id": 44794, "name": "BEIDOU-3 M21 (C43)", "group": "beidou", "lat": -18.038306050004316, "lon": -67.31494591015833, "alt_km": 21521.846893481106, "timestamp": "2025-12-12T20:43:07.300553+00:00", "meta": {"OBJECT_NAME": "BEIDOU-3 M21 (C43)", "OBJECT_ID": "2019-078B", "EPOCH": "2025-12-09T03:18:47.736000", "MEAN_MOTION": 1.86227438, "ECCENTRICITY": 0.00038519, "INCLINATION": 54.0853, "RA_OF_ASC_NODE": 306.4778, "ARG_OF_PERICENTER": 10.0441, "MEAN_ANOMALY": 349.953, "EPHEMERIS_TYPE": 0, "CLASSIFICATION_TYPE": "U", "NORAD_CAT_ID": 44794, "ELEMENT_SET_NO": 999, "REV_AT_EPOCH": 4111, "BSTAR": 0, "MEAN_MOTION_DOT": -7.6e-07, "MEAN_MOTION_DDOT": 0}, "tle": {"line1": "1 44794U 19078B   25343.13805250 -.00000076  00000+0  00000+0 0  9996", "line2": "2 44794  54.0853 306.4778 0003851  10.0441 349.9530  1.86227438 41118"}}, "geometry": {"type": "Point", "coordinates": [-67.31494591015833, -18.038306050004316]}}, {"type": "Feature", "properties": {"norad_id": 44864, "name": "BEIDOU-3 M19 (C41)", "group": "beidou", "lat": 5.7133497418981385, "lon": -114.84618294097456, "alt_km": 21546.2499047028, "timestamp": "2025-12-12T20:43:07.300564+00:00", "meta": {"OBJECT_NAME": "BEIDOU-3 M19 (C41)", "OBJECT_ID": "2019-090A", "EPOCH": "2025-12-10T23:47:39.658272", "MEAN_MOTION": 1.86231263, "ECCENTRICITY": 0.0017877, "INCLINATION": 56.392, "RA_OF_ASC_NODE": 69.0187, "ARG_OF_PERICENTER": 285.2046, "MEAN_ANOMALY": 73.1126, "EPHEMERIS_TYPE": 0, "CLASSIFICATION_TYPE": "U", "NORAD_CAT_ID": 44864, "ELEMENT_SET_NO": 999, "REV_AT_EPOCH": 4072, "BSTAR": 0, "MEAN_MOTION_DOT": -6e-07, "MEAN_MOTION_DDOT": 0}, "tle": {"line1": "1 44864U 19090A   25344.99143123 -.00000060  00000+0  00000+0 0  9990", "line2": "2 44864  56.3920  69.0187 0017877 285.2046  73.1126  1.86231263 40726"}}, "geometry": {"type": "Point", "coordinates": [-114.84618294097456, 5.7133497418981385]}}, {"type": "Feature", "properties": {"norad_id": 44865, "name": "BEIDOU-3 M20 (C42)", "group": "beidou", "lat": -55.743549516848184, "lon": -33.827789388910745, "alt_km": 21500.044463145514, "timestamp": "2025-12-12T20:43:07.300575+00:00", "meta": {"OBJECT_NAME": "BEIDOU-3 M20 (C42)", "OBJECT_ID": "2019-090B", "EPOCH": "2025-12-10T20:36:05.507712", "MEAN_MOTION": 1.86231317, "ECCENTRICITY": 0.0014897, "INCLINATION": 56.3937, "RA_OF_ASC_NODE": 69.0576, "ARG_OF_PERICENTER": 298.003, "MEAN_ANOMALY": 60.7372, "EPHEMERIS_TYPE": 0, "CLASSIFICATION_TYPE": "U", "NORAD_CAT_ID": 44865, "ELEMENT_SET_NO": 999, "REV_AT_EPOCH": 4070, "BSTAR": 0, "MEAN_MOTION_DOT": -5.8e-07, "MEAN_MOTION_DDOT": 0}, "tle": {"line1": "1 44865U 19090B   25344.85839708 -.00000058  00000+0  00000+0 0  9994", "line2": "2 44865  56.3937  69.0576 0014897 298.0030  60.7372  1.86231317 40704"}}, "geometry": {"type": "Point", "coordinates": [-33.827789388910745, -55.743549516848184]}}, {"type": "Feature", "properties": {"norad_id": 45344, "name": "BEIDOU-3 G2 (C60)", "group": "beidou", "lat": 2.341365124733232, "lon": 112.60517919152333, "alt_km": 35803.343641462336, "timestamp": "2025-12-12T20:43:07.300587+00:00", "meta": {"OBJECT_NAME": "BEIDOU-3 G2 (C60)", "OBJECT_ID": "2020-017A", "EPOCH": "2025-12-12T03:35:21.390432", "MEAN_MOTION": 1.00272955, "ECCENTRICITY": 0.0004441, "INCLINATION": 2.4966, "RA_OF_ASC_NODE": 43.8382, "ARG_OF_PERICENTER": 266.1378, "MEAN_ANOMALY": 264.9892, "EPHEMERIS_TYPE": 0, "CLASSIFICATION_TYPE": "U", "NORAD_CAT_ID": 45344, "ELEMENT_SET_NO": 999, "REV_AT_EPOCH": 2138, "BSTAR": 0, "MEAN_MOTION_DOT": -1.32e-06, "MEAN_MOTION_DDOT": 0}, "tle": {"line1": "1 45344U 20017A   25346.14955313 -.00000132  00000+0  00000+0 0  9996", "line2": "2 45344   2.4966  43.8382 0004441 266.1378 264.9892  1.00272955 21388"}}, "geometry": {"type": "Point", "coordinates": [112.60517919152333, 2.341365124733232]}}, {"type": "Feature", "properties": {"norad_id": 45807, "name": "BEIDOU-3 G3 (C61)", "group": "beidou", "lat": 1.942474443134245, "lon": 143.18194123984662, "alt_km": 35801.629287989555, "timestamp": "2025-12-12T20:43:07.300598+00:00", "meta": {"OBJECT_NAME": "BEIDOU-3 G3 (C61)", "OBJECT_ID": "2020-040A", "EPOCH": "2025-12-08T17:33:17.532288", "MEAN_MOTION": 1.00275813, "ECCENTRICITY": 0.00060306, "INCLINATION": 1.9816, "RA_OF_ASC_NODE": 66.5886, "ARG_OF_PERICENTER": 306.262, "MEAN_ANOMALY": 78.7159, "EPHEMERIS_TYPE": 0, "CLASSIFICATION_TYPE": "U", "NORAD_CAT_ID": 45807, "ELEMENT_SET_NO": 999, "REV_AT_EPOCH": 2016, "BSTAR": 0, "MEAN_MOTION_DOT": -3.52e-06, "MEAN_MOTION_DDOT": 0}, "tle": {"line1": "1 45807U 20040A   25342.73145292 -.00000352  00000+0  00000+0 0  9998", "line2": "2 45807   1.9816  66.5886 0006030 306.2620  78.7159  1.00275813 20161"}}, "geometry": {"type": "Point", "coordinates": [143.18194123984662, 1.942474443134245]}}, {"type": "Feature", "properties": {"norad_id": 56564, "name": "BEIDOU-3 G4 (C62)", "group": "beidou", "lat": -0.7803355779290505, "lon": -167.3510229106322, "alt_km": 35774.6212719312, "timestamp": "2025-12-12T20:43:07.300611+00:00", "meta": {"OBJECT_NAME": "BEIDOU-3 G4 (C62)", "OBJECT_ID": "2023-066A", "EPOCH": "2025-12-12T06:35:38.842368", "MEAN_MOTION": 1.00271574, "ECCENTRICITY": 0.00029092, "INCLINATION": 0.8155, "RA_OF_ASC_NODE": 302.032, "ARG_OF_PERICENTER": 232.7169, "MEAN_ANOMALY": 165.4517, "EPHEMERIS_TYPE": 0, "CLASSIFICATION_TYPE": "U", "NORAD_CAT_ID": 56564, "ELEMENT_SET_NO": 999, "REV_AT_EPOCH": 952, "BSTAR": 0, "MEAN_MOTION_DOT": -1.01e-06, "MEAN_MOTION_DDOT": 0}, "tle": {"line1": "1 56564U 23066A   25346.27475512 -.00000101  00000+0  00000+0 0  9997", "line2": "2 56564   0.8155 302.0320 0002909 232.7169 165.4517  1.00271574  9529"}}, "geometry": {"type": "Point", "coordinates": [-167.3510229106322, -0.7803355779290505]}}]}